[
  {
    "OBJECT_NAME": "STARLINK-31028",
    "OBJECT_ID": "23191J",
    "EPOCH": "2025-11-11T06:05:45.986208",
    "MEAN_MOTION": 15.02537003,
    "ECCENTRICITY": 0.000117,
    "INCLINATION": 43.005,
    "RA_OF_ASC_NODE": 29.6876,
    "ARG_OF_PERICENTER": 271.1613,
    "MEAN_ANOMALY": 88.9095,
    "EPHEMERIS_TYPE": 0,
    "CLASSIFICATION_TYPE": "U",
    "NORAD_CAT_ID": 58516,
    "ELEMENT_SET_NO": 999,
    "REV_AT_EPOCH": 10762,
    "BSTAR": 8.8676e-05,
    "MEAN_MOTION_DOT": 9.94e-06,
    "MEAN_MOTION_DDOT": 0.0,
    "TLE_LINE1": "1 58516U 23191J   25315.25400447  .00000994  00000+0  88676-4 0  9993",
    "TLE_LINE2": "2 58516  43.0050  29.6876 0001170 271.1613  88.9095 15.02537003107628",
    "COMMENT": "Grouped by shell and plane from TLE"
  },
  {
    "OBJECT_NAME": "STARLINK-31011",
    "OBJECT_ID": "23191K",
    "EPOCH": "2025-11-11T06:10:33.822624",
    "MEAN_MOTION": 15.02536284,
    "ECCENTRICITY": 0.0001064,
    "INCLINATION": 43.0036,
    "RA_OF_ASC_NODE": 29.7141,
    "ARG_OF_PERICENTER": 266.6769,
    "MEAN_ANOMALY": 93.3951,
    "EPHEMERIS_TYPE": 0,
    "CLASSIFICATION_TYPE": "U",
    "NORAD_CAT_ID": 58517,
    "ELEMENT_SET_NO": 999,
    "REV_AT_EPOCH": 10762,
    "BSTAR": 8.8052e-05,
    "MEAN_MOTION_DOT": 9.86e-06,
    "MEAN_MOTION_DDOT": 0.0,
    "TLE_LINE1": "1 58517U 23191K   25315.25733591  .00000986  00000+0  88052-4 0  9992",
    "TLE_LINE2": "2 58517  43.0036  29.7141 0001064 266.6769  93.3951 15.02536284107623",
    "COMMENT": "Grouped by shell and plane from TLE"
  },
  {
    "OBJECT_NAME": "STARLINK-31021",
    "OBJECT_ID": "23191L",
    "EPOCH": "2025-11-11T06:34:21.764064",
    "MEAN_MOTION": 15.02536249,
    "ECCENTRICITY": 0.0001352,
    "INCLINATION": 43.0024,
    "RA_OF_ASC_NODE": 28.9618,
    "ARG_OF_PERICENTER": 273.173,
    "MEAN_ANOMALY": 86.8958,
    "EPHEMERIS_TYPE": 0,
    "CLASSIFICATION_TYPE": "U",
    "NORAD_CAT_ID": 58518,
    "ELEMENT_SET_NO": 999,
    "REV_AT_EPOCH": 10763,
    "BSTAR": 5.0249e-05,
    "MEAN_MOTION_DOT": 4.75e-06,
    "MEAN_MOTION_DDOT": 0.0,
    "TLE_LINE1": "1 58518U 23191L   25315.27386301  .00000475  00000+0  50249-4 0  9998",
    "TLE_LINE2": "2 58518  43.0024  28.9618 0001352 273.1730  86.8958 15.02536249107638",
    "COMMENT": "Grouped by shell and plane from TLE"
  },
  {
    "OBJECT_NAME": "STARLINK-31010",
    "OBJECT_ID": "23191M",
    "EPOCH": "2025-11-11T05:03:25.412256",
    "MEAN_MOTION": 15.02537688,
    "ECCENTRICITY": 0.0001235,
    "INCLINATION": 43.0038,
    "RA_OF_ASC_NODE": 29.3169,
    "ARG_OF_PERICENTER": 271.8994,
    "MEAN_ANOMALY": 88.1707,
    "EPHEMERIS_TYPE": 0,
    "CLASSIFICATION_TYPE": "U",
    "NORAD_CAT_ID": 58519,
    "ELEMENT_SET_NO": 999,
    "REV_AT_EPOCH": 10762,
    "BSTAR": 4.554000000000001e-05,
    "MEAN_MOTION_DOT": 4.12e-06,
    "MEAN_MOTION_DDOT": 0.0,
    "TLE_LINE1": "1 58519U 23191M   25315.21071079  .00000412  00000+0  45540-4 0  9995",
    "TLE_LINE2": "2 58519  43.0038  29.3169 0001235 271.8994  88.1707 15.02537688107621",
    "COMMENT": "Grouped by shell and plane from TLE"
  },
  {
    "OBJECT_NAME": "STARLINK-31003",
    "OBJECT_ID": "23191N",
    "EPOCH": "2025-11-11T06:00:58.517856",
    "MEAN_MOTION": 15.02535099,
    "ECCENTRICITY": 0.0001321,
    "INCLINATION": 43.0052,
    "RA_OF_ASC_NODE": 29.6631,
    "ARG_OF_PERICENTER": 271.853,
    "MEAN_ANOMALY": 88.2161,
    "EPHEMERIS_TYPE": 0,
    "CLASSIFICATION_TYPE": "U",
    "NORAD_CAT_ID": 58520,
    "ELEMENT_SET_NO": 999,
    "REV_AT_EPOCH": 10762,
    "BSTAR": 0.0,
    "MEAN_MOTION_DOT": -1.867e-05,
    "MEAN_MOTION_DDOT": 0.0,
    "TLE_LINE1": "1 58520U 23191N   25315.25067729 -.00001867  00000+0 -12318-3 0  9991",
    "TLE_LINE2": "2 58520  43.0052  29.6631 0001321 271.8530  88.2161 15.02535099107627",
    "COMMENT": "Grouped by shell and plane from TLE"
  },
  {
    "OBJECT_NAME": "STARLINK-31015",
    "OBJECT_ID": "23191P",
    "EPOCH": "2025-11-11T05:56:10.556160",
    "MEAN_MOTION": 15.02537306,
    "ECCENTRICITY": 0.0001255,
    "INCLINATION": 43.0048,
    "RA_OF_ASC_NODE": 29.6433,
    "ARG_OF_PERICENTER": 271.78,
    "MEAN_ANOMALY": 88.2899,
    "EPHEMERIS_TYPE": 0,
    "CLASSIFICATION_TYPE": "U",
    "NORAD_CAT_ID": 58521,
    "ELEMENT_SET_NO": 999,
    "REV_AT_EPOCH": 10759,
    "BSTAR": 2.3702e-05,
    "MEAN_MOTION_DOT": 1.17e-06,
    "MEAN_MOTION_DDOT": 0.0,
    "TLE_LINE1": "1 58521U 23191P   25315.24734440  .00000117  00000+0  23702-4 0  9997",
    "TLE_LINE2": "2 58521  43.0048  29.6433 0001255 271.7800  88.2899 15.02537306107595",
    "COMMENT": "Grouped by shell and plane from TLE"
  },
  {
    "OBJECT_NAME": "STARLINK-31023",
    "OBJECT_ID": "23191Q",
    "EPOCH": "2025-11-11T05:51:23.042880",
    "MEAN_MOTION": 15.02537736,
    "ECCENTRICITY": 0.0001017,
    "INCLINATION": 43.0031,
    "RA_OF_ASC_NODE": 29.6126,
    "ARG_OF_PERICENTER": 282.568,
    "MEAN_ANOMALY": 77.5048,
    "EPHEMERIS_TYPE": 0,
    "CLASSIFICATION_TYPE": "U",
    "NORAD_CAT_ID": 58522,
    "ELEMENT_SET_NO": 999,
    "REV_AT_EPOCH": 10762,
    "BSTAR": 3.6618e-05,
    "MEAN_MOTION_DOT": 2.91e-06,
    "MEAN_MOTION_DDOT": 0.0,
    "TLE_LINE1": "1 58522U 23191Q   25315.24401670  .00000291  00000+0  36618-4 0  9997",
    "TLE_LINE2": "2 58522  43.0031  29.6126 0001017 282.5680  77.5048 15.02537736107627",
    "COMMENT": "Grouped by shell and plane from TLE"
  },
  {
    "OBJECT_NAME": "STARLINK-30932",
    "OBJECT_ID": "23191R",
    "EPOCH": "2025-11-11T05:46:35.418144",
    "MEAN_MOTION": 15.0253361,
    "ECCENTRICITY": 0.0001104,
    "INCLINATION": 43.0039,
    "RA_OF_ASC_NODE": 29.5907,
    "ARG_OF_PERICENTER": 274.7073,
    "MEAN_ANOMALY": 85.3644,
    "EPHEMERIS_TYPE": 0,
    "CLASSIFICATION_TYPE": "U",
    "NORAD_CAT_ID": 58523,
    "ELEMENT_SET_NO": 999,
    "REV_AT_EPOCH": 10757,
    "BSTAR": 8.9684e-05,
    "MEAN_MOTION_DOT": 1.008e-05,
    "MEAN_MOTION_DDOT": 0.0,
    "TLE_LINE1": "1 58523U 23191R   25315.24068771  .00001008  00000+0  89684-4 0  9997",
    "TLE_LINE2": "2 58523  43.0039  29.5907 0001104 274.7073  85.3644 15.02533610107578",
    "COMMENT": "Grouped by shell and plane from TLE"
  },
  {
    "OBJECT_NAME": "STARLINK-30992",
    "OBJECT_ID": "23191S",
    "EPOCH": "2025-11-11T05:41:48.077664",
    "MEAN_MOTION": 15.02543825,
    "ECCENTRICITY": 0.0001077,
    "INCLINATION": 43.0041,
    "RA_OF_ASC_NODE": 29.5621,
    "ARG_OF_PERICENTER": 260.3303,
    "MEAN_ANOMALY": 99.7418,
    "EPHEMERIS_TYPE": 0,
    "CLASSIFICATION_TYPE": "U",
    "NORAD_CAT_ID": 58524,
    "ELEMENT_SET_NO": 999,
    "REV_AT_EPOCH": 10762,
    "BSTAR": 0.0,
    "MEAN_MOTION_DOT": -3.18e-06,
    "MEAN_MOTION_DDOT": 0.0,
    "TLE_LINE1": "1 58524U 23191S   25315.23736201 -.00000318  00000+0 -84682-5 0  9996",
    "TLE_LINE2": "2 58524  43.0041  29.5621 0001077 260.3303  99.7418 15.02543825107624",
    "COMMENT": "Grouped by shell and plane from TLE"
  },
  {
    "OBJECT_NAME": "STARLINK-30948",
    "OBJECT_ID": "23191T",
    "EPOCH": "2025-11-11T05:36:59.957856",
    "MEAN_MOTION": 15.02535372,
    "ECCENTRICITY": 9.47e-05,
    "INCLINATION": 43.0034,
    "RA_OF_ASC_NODE": 29.5394,
    "ARG_OF_PERICENTER": 270.3089,
    "MEAN_ANOMALY": 89.7645,
    "EPHEMERIS_TYPE": 0,
    "CLASSIFICATION_TYPE": "U",
    "NORAD_CAT_ID": 58525,
    "ELEMENT_SET_NO": 999,
    "REV_AT_EPOCH": 10762,
    "BSTAR": 0.0,
    "MEAN_MOTION_DOT": -4.72e-06,
    "MEAN_MOTION_DDOT": 0.0,
    "TLE_LINE1": "1 58525U 23191T   25315.23402729 -.00000472  00000+0 -19895-4 0  9996",
    "TLE_LINE2": "2 58525  43.0034  29.5394 0000947 270.3089  89.7645 15.02535372107620",
    "COMMENT": "Grouped by shell and plane from TLE"
  },
  {
    "OBJECT_NAME": "STARLINK-31013",
    "OBJECT_ID": "23191U",
    "EPOCH": "2025-11-11T05:32:12.495552",
    "MEAN_MOTION": 15.02533572,
    "ECCENTRICITY": 0.0001253,
    "INCLINATION": 43.0047,
    "RA_OF_ASC_NODE": 29.5121,
    "ARG_OF_PERICENTER": 269.6667,
    "MEAN_ANOMALY": 90.4031,
    "EPHEMERIS_TYPE": 0,
    "CLASSIFICATION_TYPE": "U",
    "NORAD_CAT_ID": 58526,
    "ELEMENT_SET_NO": 999,
    "REV_AT_EPOCH": 10762,
    "BSTAR": 5.699300000000001e-05,
    "MEAN_MOTION_DOT": 5.66e-06,
    "MEAN_MOTION_DDOT": 0.0,
    "TLE_LINE1": "1 58526U 23191U   25315.23070018  .00000566  00000+0  56993-4 0  9991",
    "TLE_LINE2": "2 58526  43.0047  29.5121 0001253 269.6667  90.4031 15.02533572107625",
    "COMMENT": "Grouped by shell and plane from TLE"
  },
  {
    "OBJECT_NAME": "STARLINK-31001",
    "OBJECT_ID": "23191V",
    "EPOCH": "2025-11-11T06:43:55.571520",
    "MEAN_MOTION": 15.02570521,
    "ECCENTRICITY": 0.0002156,
    "INCLINATION": 43.0059,
    "RA_OF_ASC_NODE": 28.9417,
    "ARG_OF_PERICENTER": 290.7288,
    "MEAN_ANOMALY": 69.3323,
    "EPHEMERIS_TYPE": 0,
    "CLASSIFICATION_TYPE": "U",
    "NORAD_CAT_ID": 58527,
    "ELEMENT_SET_NO": 999,
    "REV_AT_EPOCH": 10763,
    "BSTAR": 0.0,
    "MEAN_MOTION_DOT": -7.815e-05,
    "MEAN_MOTION_DDOT": 0.0,
    "TLE_LINE1": "1 58527U 23191V   25315.28050430 -.00007815  00000+0 -56356-3 0  9991",
    "TLE_LINE2": "2 58527  43.0059  28.9417 0002156 290.7288  69.3323 15.02570521107632",
    "COMMENT": "Grouped by shell and plane from TLE"
  },
  {
    "OBJECT_NAME": "STARLINK-31004",
    "OBJECT_ID": "23191W",
    "EPOCH": "2025-11-11T07:03:08.154432",
    "MEAN_MOTION": 15.02535611,
    "ECCENTRICITY": 9.29e-05,
    "INCLINATION": 43.0028,
    "RA_OF_ASC_NODE": 29.1222,
    "ARG_OF_PERICENTER": 241.0956,
    "MEAN_ANOMALY": 118.9793,
    "EPHEMERIS_TYPE": 0,
    "CLASSIFICATION_TYPE": "U",
    "NORAD_CAT_ID": 58528,
    "ELEMENT_SET_NO": 999,
    "REV_AT_EPOCH": 10763,
    "BSTAR": 9.3757e-05,
    "MEAN_MOTION_DOT": 1.063e-05,
    "MEAN_MOTION_DDOT": 0.0,
    "TLE_LINE1": "1 58528U 23191W   25315.29384438  .00001063  00000+0  93757-4 0  9995",
    "TLE_LINE2": "2 58528  43.0028  29.1222 0000929 241.0956 118.9793 15.02535611107636",
    "COMMENT": "Grouped by shell and plane from TLE"
  }
]